{"fetched_at":"2026-03-29T16:36:15Z","count":15609,"tles":[{"name":"STARLINK-35322","line1":"1 66332U 25253P   26087.76565643  .00014871  00000+0  54866-3 0  9994","line2":"2 66332  43.0025 104.6271 0000762 292.9330  67.1442 15.27590279 23163","category":"Starlink"}]}