{
  "norad_id": 66332,
  "name": "STARLINK-35322",
  "history": [
    {
      "epoch": "2026-03-28T18:22:32.715552",
      "apogee_km": 483.54120583511576,
      "perigee_km": 482.49542854166975,
      "latitude_deg": 7.0612424245050205,
      "longitude_deg": 166.7030172799714,
      "semi_major_axis_km": 6861.1553171883925,
      "eccentricity": 7.621e-05,
      "inclination_deg": 43.0025,
      "raan_deg": 104.6271,
      "arg_perigee_deg": 292.933,
      "mean_anomaly_deg": 67.1442,
      "mean_motion_rev_day": 15.27590279
    }
  ]
}